NORAD_CAT_ID,OBJECT_NAME,OBJECT_TYPE,EPOCH,MEAN_MOTION,ECCENTRICITY,INCLINATION,RA_OF_ASC_NODE,ARG_OF_PERICENTER,MEAN_ANOMALY,BSTAR,MEAN_MOTION_DOT,MEAN_MOTION_DDOT,TLE_LINE0,TLE_LINE1,TLE_LINE2,SEMIMAJOR_AXIS,PERIOD,APOGEE,PERIGEE,DECAYED
55416.0,STARLINK-5624,PAYLOAD,2023-06-20 20:07:24,14.98326912,0.0002921,70.0003,67.747,267.5518,92.5307,-1.0605e-05,-2.2e-06,0.0,0 STARLINK-5624,1 55416U 23014AB  23171.83847421 -.00000220  00000-0 -10605-4 0  9994,2 55416  70.0003  67.7470 0002921 267.5518  92.5307 14.98326912 22849,6950.202,96.107,574.098,570.037,0.0
55416.0,STARLINK-5624,PAYLOAD,2023-06-21 02:31:56,14.98328983,0.0002968,70.0003,67.0737,267.6141,92.4678,-7.0089e-07,-1.01e-06,0.0,0 STARLINK-5624,1 55416U 23014AB  23172.10551261 -.00000101  00000-0 -70089-6 0  9991,2 55416  70.0003  67.0737 0002968 267.6141  92.4678 14.98328983 21942,6950.196,96.107,574.124,569.998,0.0
55416.0,STARLINK-5624,PAYLOAD,2023-06-21 10:32:36,14.98323688,0.0002918,69.9999,66.2314,276.8719,83.2108,8.7268e-05,9.48e-06,0.0,0 STARLINK-5624,1 55416U 23014AB  23172.43931452  .00000948  00000-0  87268-4 0  9993,2 55416  69.9999  66.2314 0002918 276.8719  83.2108 14.98323688 22936,6950.212,96.107,574.105,570.049,0.0
55416.0,STARLINK-5624,PAYLOAD,2023-06-21 20:09:24,14.98352371,0.0002862,69.9998,65.2215,273.3758,86.7073,-0.00036896,-4.495e-05,0.0,0 STARLINK-5624,1 55416U 23014AB  23172.83986642 -.00004495  00000-0 -36896-3 0  9991,2 55416  69.9998  65.2215 0002862 273.3758  86.7073 14.98352371 22993,6950.124,96.106,573.978,570.0,0.0
55416.0,STARLINK-5624,PAYLOAD,2023-06-22 02:33:56,14.98333503,0.0003036,70.0001,64.5482,269.7772,90.3039,4.1329e-05,4e-06,0.0,0 STARLINK-5624,1 55416U 23014AB  23173.10690806  .00000400  00000-0  41329-4 0  9994,2 55416  70.0001  64.5482 0003036 269.7772  90.3039 14.98333503 22098,6950.182,96.107,574.157,569.937,0.0
55416.0,STARLINK-5624,PAYLOAD,2023-06-23 02:35:57,14.98336059,0.000305,70.0001,62.0229,269.7327,90.3483,8.0987e-05,8.74e-06,0.0,0 STARLINK-5624,1 55416U 23014AB  23174.10830456  .00000874  00000-0  80987-4 0  9990,2 55416  70.0001  62.0229 0003050 269.7327  90.3483 14.98336059 22241,6950.174,96.107,574.159,569.919,0.0
55416.0,STARLINK-5624,PAYLOAD,2023-06-23 18:37:18,14.98328914,0.0002995,70.0004,60.34,269.6713,90.4103,-3.6123e-06,-1.36e-06,0.0,0 STARLINK-5624,1 55416U 23014AB  23174.77591054 -.00000136  00000-0 -36123-5 0  9998,2 55416  70.0004  60.3400 0002995 269.6713  90.4103 14.98328914 22343,6950.196,96.107,574.143,569.98,0.0
55416.0,STARLINK-5624,PAYLOAD,2023-06-25 02:39:59,14.98333867,0.0002882,70.0002,56.9733,269.0926,90.9903,1.4369e-05,7.8e-07,0.0,0 STARLINK-5624,1 55416U 23014AB  23176.11110571  .00000078  00000-0  14369-4 0  9999,2 55416  70.0002  56.9733 0002882 269.0926  90.9903 14.98333867 22544,6950.181,96.107,574.049,570.043,0.0
55416.0,STARLINK-5624,PAYLOAD,2023-06-25 17:05:12,14.98323152,0.0002909,70.0004,55.4582,271.4156,88.667,0.00012089,1.349e-05,0.0,0 STARLINK-5624,1 55416U 23014AB  23176.71194853  .00001349  00000-0  12089-3 0  9998,2 55416  70.0004  55.4582 0002909 271.4156  88.6670 14.98323152 22635,6950.214,96.107,574.101,570.057,0.0
55416.0,STARLINK-5624,PAYLOAD,2023-06-26 17:07:13,14.98325183,0.0002979,70.0001,52.9336,269.2582,90.8236,5.3291e-05,5.43e-06,0.0,0 STARLINK-5624,1 55416U 23014AB  23177.71334919  .00000543  00000-0  53291-4 0  9994,2 55416  70.0001  52.9336 0002979 269.2582  90.8236 14.98325183 22781,6950.208,96.107,574.143,570.002,0.0
55416.0,STARLINK-5624,PAYLOAD,2023-06-27 20:21:30,14.98327665,0.0003028,70.0005,50.0718,270.2336,89.8476,2.2784e-05,1.79e-06,0.0,0 STARLINK-5624,1 55416U 23014AB  23178.84826958  .00000179  00000-0  22784-4 0  9996,2 55416  70.0005  50.0718 0003028 270.2336  89.8476 14.98327665 22953,6950.2,96.107,574.17,569.961,0.0
55416.0,STARLINK-5624,PAYLOAD,2023-06-29 01:11:55,14.98331535,0.0003101,70.0002,47.0423,268.8483,91.2321,4.2928e-05,4.19e-06,0.0,0 STARLINK-5624,1 55416U 23014AB  23180.04994638  .00000419  00000-0  42928-4 0  9991,2 55416  70.0002  47.0423 0003101 268.8483  91.2321 14.98331535 23135,6950.188,96.107,574.208,569.898,0.0
55416.0,STARLINK-5624,PAYLOAD,2023-07-01 01:15:57,14.98330853,0.000299,70.0003,41.9925,268.929,91.1527,9.1372e-06,1.6e-07,0.0,0 STARLINK-5624,1 55416U 23014AB  23182.05274619  .00000016  00000-0  91372-5 0  9995,2 55416  70.0003  41.9925 0002990 268.9290  91.1527 14.98330853 23430,6950.19,96.107,574.133,569.977,0.0
55416.0,STARLINK-5624,PAYLOAD,2023-07-02 01:17:58,14.98331987,0.0003015,70.0002,39.4673,267.8836,92.1978,3.9659e-06,-4.6e-07,0.0,0 STARLINK-5624,1 55416U 23014AB  23183.05414474 -.00000046  00000-0  39659-5 0  9995,2 55416  70.0002  39.4673 0003015 267.8836  92.1978 14.98331987 23580,6950.187,96.107,574.147,569.956,0.0
55416.0,STARLINK-5624,PAYLOAD,2023-07-03 07:44:31,14.98329493,0.0003082,70.0003,36.269,268.7897,91.2909,-1.641e-06,-1.13e-06,0.0,0 STARLINK-5624,1 55416U 23014AB  23184.32258597 -.00000113  00000-0 -16410-5 0  9994,2 55416  70.0003  36.2690 0003082 268.7897  91.2909 14.98329493 23770,6950.194,96.107,574.202,569.917,0.0
55416.0,STARLINK-5624,PAYLOAD,2023-07-04 15:47:12,14.98329413,0.0003155,70.0001,32.9024,268.6872,91.3925,1.799e-05,1.22e-06,0.0,0 STARLINK-5624,1 55416U 23014AB  23185.65778451  .00000122  00000-0  17990-4 0  9998,2 55416  70.0001  32.9024 0003155 268.6872  91.3925 14.98329413 23978,6950.195,96.107,574.252,569.867,0.0
55416.0,STARLINK-5624,PAYLOAD,2023-07-05 23:49:53,14.98332131,0.0003145,70.0003,29.5361,268.4258,91.6541,1.6195e-05,1e-06,0.0,0 STARLINK-5624,1 55416U 23014AB  23186.99298188  .00000100  00000-0  16195-4 0  9992,2 55416  70.0003  29.5361 0003145 268.4258  91.6541 14.98332131 24172,6950.186,96.107,574.237,569.865,0.0
55416.0,STARLINK-5624,PAYLOAD,2023-07-06 23:51:54,14.98334103,0.0003118,70.0003,27.0109,269.5431,90.5371,4.2773e-05,4.17e-06,0.0,0 STARLINK-5624,1 55416U 23014AB  23187.99437846  .00000417  00000-0  42773-4 0  9991,2 55416  70.0003  27.0109 0003118 269.5431  90.5371 14.98334103 24327,6950.18,96.107,574.212,569.878,0.0
55416.0,STARLINK-5624,PAYLOAD,2023-07-07 19:05:31,14.9832988,0.0003159,69.9999,24.9907,269.4065,90.6732,-6.3736e-06,-1.69e-06,0.0,0 STARLINK-5624,1 55416U 23014AB  23188.79550181 -.00000169  00000-0 -63736-5 0  9997,2 55416  69.9999  24.9907 0003159 269.4065  90.6732 14.98329880 24448,6950.193,96.107,574.254,569.863,0.0
55416.0,STARLINK-5624,PAYLOAD,2023-07-08 19:07:32,14.98331786,0.0003178,69.9997,22.4654,269.6777,90.4017,-2.6205e-05,-4.06e-06,0.0,0 STARLINK-5624,1 55416U 23014AB  23189.79690077 -.00000406  00000-0 -26205-4 0  9990,2 55416  69.9997  22.4654 0003178 269.6777  90.4017 14.98331786 24599,6950.187,96.107,574.261,569.844,0.0
55416.0,STARLINK-5624,PAYLOAD,2023-07-09 19:09:33,14.98323884,0.0003511,70.0005,19.941,275.1555,84.9203,4.8945e-05,4.91e-06,0.0,0 STARLINK-5624,1 55416U 23014AB  23190.79830452  .00000491  00000-0  48945-4 0  9992,2 55416  70.0005  19.9410 0003511 275.1555  84.9203 14.98323884 24742,6950.212,96.107,574.517,569.637,0.0
55416.0,STARLINK-5624,PAYLOAD,2023-07-10 11:10:53,14.9833083,0.0003243,70.0005,18.2575,269.4306,90.6481,5.892e-05,6.1e-06,0.0,0 STARLINK-5624,1 55416U 23014AB  23191.46590006  .00000610  00000-0  58920-4 0  9992,2 55416  70.0005  18.2575 0003243 269.4306  90.6481 14.98330830 24840,6950.19,96.107,574.309,569.801,0.0
55416.0,STARLINK-5624,PAYLOAD,2023-07-11 19:13:35,14.98316991,0.0003059,70.0003,14.8909,266.8696,93.2113,0.0001681,1.913e-05,0.0,0 STARLINK-5624,1 55416U 23014AB  23192.80110544  .00001913  00000-0  16810-3 0  9994,2 55416  70.0003  14.8909 0003059 266.8696  93.2113 14.98316991 25045,6950.233,96.108,574.224,569.972,0.0
55416.0,STARLINK-5624,PAYLOAD,2023-07-12 04:50:23,14.98330535,0.0003186,70.0006,13.8811,270.187,89.8924,1.6995e-06,-7.3e-07,0.0,0 STARLINK-5624,1 55416U 23014AB  23193.20166173 -.00000073  00000-0  16995-5 0  9991,2 55416  70.0006  13.8811 0003186 270.1870  89.8924 14.98330535 25100,6950.191,96.107,574.271,569.842,0.0
55416.0,STARLINK-5624,PAYLOAD,2023-07-13 17:41:28,14.98328263,0.0003233,70.0008,10.01,267.5434,92.5355,-4.3798e-06,-1.45e-06,0.0,0 STARLINK-5624,1 55416U 23014AB  23194.73714065 -.00000145  00000-0 -43798-5 0  9991,2 55416  70.0008  10.0100 0003233 267.5434  92.5355 14.98328263 25330,6950.198,96.107,574.31,569.816,0.0
55416.0,STARLINK-5624,PAYLOAD,2023-07-14 17:43:29,14.98334311,0.0003301,70.0005,7.485,269.223,90.8551,-5.4545e-06,-1.58e-06,0.0,0 STARLINK-5624,1 55416U 23014AB  23195.73853621 -.00000158  00000-0 -54545-5 0  9990,2 55416  70.0005   7.4850 0003301 269.2230  90.8551 14.98334311 25484,6950.18,96.107,574.339,569.75,0.0
55416.0,STARLINK-5624,PAYLOAD,2023-07-15 11:20:58,14.98324962,0.0003295,70.0007,5.6335,268.6561,91.422,-4.4987e-06,-1.47e-06,0.0,0 STARLINK-5624,1 55416U 23014AB  23196.47290125 -.00000147  00000-0 -44987-5 0  9993,2 55416  70.0007   5.6335 0003295 268.6561  91.4220 14.98324962 25599,6950.208,96.107,574.364,569.783,0.0
55416.0,STARLINK-5624,PAYLOAD,2023-07-15 20:57:46,14.98330402,0.0003336,70.0005,4.6228,267.8373,92.2404,2.4089e-05,1.94e-06,0.0,0 STARLINK-5624,1 55416U 23014AB  23196.87345739  .00000194  00000-0  24089-4 0  9999,2 55416  70.0005   4.6228 0003336 267.8373  92.2404 14.98330402 25651,6950.192,96.107,574.375,569.738,0.0
55416.0,STARLINK-5624,PAYLOAD,2023-07-16 20:59:47,14.98332316,0.0003324,70.0006,2.0982,268.0741,92.0037,8.2681e-06,6e-08,0.0,0 STARLINK-5624,1 55416U 23014AB  23197.87485705  .00000006  00000-0  82681-5 0  9993,2 55416  70.0006   2.0982 0003324 268.0741  92.0037 14.98332316 25803,6950.186,96.107,574.361,569.74,0.0
55416.0,STARLINK-5624,PAYLOAD,2023-07-17 21:01:48,14.98333794,0.0003186,70.0007,359.5735,267.7433,92.3361,8.7056e-05,9.46e-06,0.0,0 STARLINK-5624,1 55416U 23014AB  23198.87625401  .00000946  00000-0  87056-4 0  9996,2 55416  70.0007 359.5735 0003186 267.7433  92.3361 14.98333794 25950,6950.181,96.107,574.26,569.832,0.0
